locator_domain,page_url,location_name,street_address,city,state,zip,store_number,phone,latitude,longitude,hours_of_operation,country_code,location_type
potatocornerusa.com,https://www.potatocornerusa.com/parks-at-arlington,Parks at arlington mall,3811 S. Cooper St. ,Arlington,TX,76015,<MISSING>,817-467-0200,<MISSING>,<MISSING>,<MISSING>,US,<MISSING>
potatocornerusa.com,https://www.potatocornerusa.com/arrowhead-towne-center,Arrowhead Towne Center,7700 W. Arrowhead Towne Center ,Glendale,AZ,85308,<MISSING>,623-979-7777,<MISSING>,<MISSING>,<MISSING>,US,<MISSING>
potatocornerusa.com,https://www.potatocornerusa.com/chandler-fashion-center,Chandler Fashion Center,3111 W Chandler Blvd ,Chandler,AZ,85226,<MISSING>,480-812-8488,<MISSING>,<MISSING>,<MISSING>,US,<MISSING>
potatocornerusa.com,https://www.potatocornerusa.com/ggp-coronado-center,GGP Coronado Center Mall,6600 Menaul ,NE Albuquerque,NM,87110,<MISSING>,505-881-2700,<MISSING>,<MISSING>,<MISSING>,US,<MISSING>
potatocornerusa.com,https://www.potatocornerusa.com/westfield-plaza-bonita,Westfield Plaza Bonita Mall,3030 Plaza Bonita Road #2075 National ,City,CA,91950,<MISSING>,619-267-1078,<MISSING>,<MISSING>,<MISSING>,US,<MISSING>
potatocornerusa.com,https://www.potatocornerusa.com/westfield-valley-fair,Westfield Valley Fair Mall,2855 Stevens Creek Blvd Santa ,Clara,CA,95050,<MISSING>,408-248-4450,<MISSING>,<MISSING>,<MISSING>,US,<MISSING>
potatocornerusa.com,https://www.potatocornerusa.com/westfield-galleria-roseville,Westfield Galleria at Roseville Mall,1151 Galleria Blvd. ,Roseville,CA,95678,<MISSING>,916-787-2000,<MISSING>,<MISSING>,<MISSING>,US,<MISSING>
potatocornerusa.com,https://www.potatocornerusa.com/ontario-mills,Ontario Mills,1 Mills Cir ,Ontario,CA,91764,<MISSING>,<MISSING>,<MISSING>,<MISSING>,<MISSING>,US,<MISSING>
potatocornerusa.com,https://www.potatocornerusa.com/moreno-valley,Moreno Valley Mall,22500 Town Cir Moreno ,Valley,CA,92553,<MISSING>,<MISSING>,<MISSING>,<MISSING>,<MISSING>,US,<MISSING>
potatocornerusa.com,https://www.potatocornerusa.com/americana-at-brand,The Americana at Brand Mall, 620 Americana Way ,Glendale,CA,91210,<MISSING>,818-500-8180‎,<MISSING>,<MISSING>,<MISSING>,US,<MISSING>
potatocornerusa.com,https://www.potatocornerusa.com/queens-center,Queens Center,90-15 Queens Blvd ,Elmhurst,NY,11373,<MISSING>,<MISSING>,<MISSING>,<MISSING>,<MISSING>,US,<MISSING>
potatocornerusa.com,https://www.potatocornerusa.com/fashion-district,Fashion District,Fashion District Philadelpha 901 Market St ,Philadelpha,PA,19107,<MISSING>,<MISSING>,<MISSING>,<MISSING>,<MISSING>,US,<MISSING>
potatocornerusa.com,https://www.potatocornerusa.com/valley-plaza,Valley Plaza Mall,2701 Ming Ave ,Bakersfield,CA,<MISSING>,<MISSING>,661-832-2436,<MISSING>,<MISSING>,<MISSING>,US,<MISSING>
potatocornerusa.com,https://www.potatocornerusa.com/north-point,North point mall,1000 North Point ,CircleAlpharetta,GA,30022,<MISSING>,<MISSING>,<MISSING>,<MISSING>,<MISSING>,US,<MISSING>
potatocornerusa.com,https://www.potatocornerusa.com/grapevine-mills,Grapevine mills, 3000 Grapevine Mills Pkwy ,Grapevine,TX,76051,<MISSING>,<MISSING>,<MISSING>,<MISSING>,<MISSING>,US,<MISSING>
potatocornerusa.com,https://www.potatocornerusa.com/westfield-santa-anita,Westfield Santa Anita Mall,400 S. Baldwin Ave. Suite 231 ,Arcadia,CA,91007,<MISSING>,626-294-0720,<MISSING>,<MISSING>,<MISSING>,US,<MISSING>
potatocornerusa.com,https://www.potatocornerusa.com/simon-cottonwood,Simon Cottonwood Mall,10000 Coors Blvd Bypass NW ,Albuquerque,NM,87114,<MISSING>,505-508-5649 ‎,<MISSING>,<MISSING>,<MISSING>,US,<MISSING>
potatocornerusa.com,https://www.potatocornerusa.com/rosedale-center,Rosedale Center,10 Rosedale Shopping Center ,Roseville,MN,55113,<MISSING>,651-633-0872,<MISSING>,<MISSING>,<MISSING>,US,<MISSING>
potatocornerusa.com,https://www.potatocornerusa.com/ggp-town-east,GGP Town East mall,2063 Town East Mall ,Mesquite,TX,75150,<MISSING>,972-270-4431,<MISSING>,<MISSING>,<MISSING>,US,<MISSING>
potatocornerusa.com,https://www.potatocornerusa.com/garden-state-plaza,Garden state plaza mall,Garden State Plaza ,Paramus,NJ,07652,<MISSING>,201-843-0687,<MISSING>,<MISSING>,<MISSING>,US,<MISSING>
potatocornerusa.com,https://www.potatocornerusa.com/westfield-topanga,Westfield Topanga Mall, 6600 Topanga Canyon Blvd. Canoga ,Park,CA,91303,<MISSING>,818-594-8740,<MISSING>,<MISSING>,<MISSING>,US,<MISSING>
potatocornerusa.com,https://www.potatocornerusa.com/westfield-north-county,Westfield North County Mall,272 East Via Ranch Parkway ,Escondido,CA,92025,<MISSING>,760-489-0631,<MISSING>,<MISSING>,<MISSING>,US,<MISSING>
potatocornerusa.com,https://www.potatocornerusa.com/great-mall,Great mall,Great Mall 447 Great Mall Dr ,Milpitas,CA,95035,<MISSING>,<MISSING>,<MISSING>,<MISSING>,<MISSING>,US,<MISSING>
potatocornerusa.com,https://www.potatocornerusa.com/memorial-city,Memorial City mall,303 Memorial City Way ,Houston,TX,77024,<MISSING>,<MISSING>,<MISSING>,<MISSING>,<MISSING>,US,<MISSING>
potatocornerusa.com,https://www.potatocornerusa.com/ggp-northridge,GGP Northridge Mall,9301 Tampa Ave. ,Northridge,CA,91324,<MISSING>,818-850-2004,<MISSING>,<MISSING>,<MISSING>,US,<MISSING>
potatocornerusa.com,https://www.potatocornerusa.com/macerich-stonewood-center,Macerich Stonewood Center,251 Stonewood St ,Downey,CA,90241,<MISSING>,562-904-1832,<MISSING>,<MISSING>,<MISSING>,US,<MISSING>
potatocornerusa.com,https://www.potatocornerusa.com/macerich-south-plains,Macerich south plains mall,6002 Slide Road ,Lubbock,TX,79414,<MISSING>,806-780-6711,<MISSING>,<MISSING>,<MISSING>,US,<MISSING>
potatocornerusa.com,https://www.potatocornerusa.com/broadway-commons,Broadway Commons,358 N Broadway ,Hicksville,NY,11801,<MISSING>,516-939-0679,<MISSING>,<MISSING>,<MISSING>,US,<MISSING>
potatocornerusa.com,https://www.potatocornerusa.com/westfield-oakridge,Westfield Oakridge,925 Blossom Hill Rd San ,Jose,CA,95123,<MISSING>,408-578-2912,<MISSING>,<MISSING>,<MISSING>,US,<MISSING>
potatocornerusa.com,https://www.potatocornerusa.com/southland,Southland Mall,20505 South Dixie Highway ,Miami,FL,33189,<MISSING>,<MISSING>,<MISSING>,<MISSING>,<MISSING>,US,<MISSING>
potatocornerusa.com,https://www.potatocornerusa.com/potato-corner-hq-culver-city,Potato Corner HQ (Culver City),8657 Hayden Place Culver ,City,CA,90232,<MISSING>,800-565-1114,<MISSING>,<MISSING>,<MISSING>,US,<MISSING>
potatocornerusa.com,https://www.potatocornerusa.com/seattle-southcenter,Seattle southcenter,2800 Southcenter Mall ,Seattle,WA,98188,<MISSING>, 206-246-0423,<MISSING>,<MISSING>,<MISSING>,US,<MISSING>
potatocornerusa.com,https://www.potatocornerusa.com/town-square-mall,Town Square mall,6629 S. Las Vegas Blvd. #J-106 Las ,Vegas,NV,89119,<MISSING>,702-896-8882,<MISSING>,<MISSING>,<MISSING>,US,<MISSING>
potatocornerusa.com,https://www.potatocornerusa.com/galleria-at-sunset,Galleria at Sunset,1300 West Sunset Rd Space K05 ,Henderson,NV,89014,<MISSING>,702-750-9746,<MISSING>,<MISSING>,<MISSING>,US,<MISSING>
potatocornerusa.com,https://www.potatocornerusa.com/westfield-culver-city,Westfield Culver City Mall,6000 Sepulveda Blvd. Culver ,City,CA,90230,<MISSING>,310-390-5073,<MISSING>,<MISSING>,<MISSING>,US,<MISSING>
potatocornerusa.com,https://www.potatocornerusa.com/macerich-lakewood-center,Macerich Lakewood Center,500 Lakewood Center Mall ,Lakewood,CA,90712,<MISSING>,562-531-6707,<MISSING>,<MISSING>,<MISSING>,US,<MISSING>
